GALAXY 17 (G-17)        
1 31307C 07016B   23135.00000000 -.00000116  00000-0  00000-0 0  1353
2 31307   0.1000  95.0600 0001692 320.5907  91.8189  1.00271288    17
INTELSAT 11 (IS-11)     
1 32253C 07044B   23131.00000000 -.00000178  00000-0  00000-0 0  1315
2 32253   0.6259  92.6700 0003489 330.6676 122.1954  1.00271436    17
INTELSAT 11 (IS-11) [PM]
1 32253C 07044B   23131.28174769 -.00000178  00000-0  00000-0 0  1319
2 32253   0.6266  92.6888 0003487 331.5188 223.0318  1.00271427    13
INTELSAT 11 (IS-11)     
1 32253C 07044B   23135.00000000 -.00000178  00000-0  00000-0 0  1353
2 32253   0.6334  92.5036 0003176 333.8902 123.0733  1.00270255    15
INTELSAT 11 (IS-11) [PM]
1 32253C 07044B   23136.82290509 -.00000178  00000-0  00000-0 0  1360
2 32253   0.6385  92.3120 0002948 331.5286  63.6593  1.00272634    15
HORIZONS-2              
1 32388C 07063B   23131.00000000 -.00000146  00000-0  00000-0 0  1310
2 32388   0.0055   5.5545 0002724  63.3087  85.8689  1.00271026    16
HORIZONS-2              
1 32388C 07063B   23135.00000000 -.00000184  00000-0  00000-0 0  1350
2 32388   0.0124  28.6196 0002413  42.4410  87.6024  1.00270244    18
HORIZONS-2          [PM]
1 32388C 07063B   23135.92130787 -.00000079  00000-0  00000-0 0  1350
2 32388   0.0136  22.4615 0002200  43.1181  65.6568  1.00273511    15
GALAXY 18 (G-18)    [PM]
1 32951C 08024A   23125.77083333  .00000116  00000-0  00000-0 0  1250
2 32951   0.0134 287.7122 0003163 115.2269 334.9515  1.00270422    17
GALAXY 18 (G-18)        
1 32951C 08024A   23131.00000000  .00000103  00000-0  00000-0 0  1316
2 32951   0.0291 102.4528 0003174 310.3867  52.6864  1.00270302    16
GALAXY 18 (G-18)        
1 32951C 08024A   23135.00000000  .00000120  00000-0  00000-0 0  1353
2 32951   0.0267  79.4421 0002835 335.7527  54.2688  1.00271471    11
INTELSAT 25 (IS-25)     
1 33153C 08034A   23131.00000000 -.00000134  00000-0  00000-0 0  1317
2 33153   0.0146 329.0441 0003343  93.0861 134.8999  1.00271170    14
INTELSAT 25 (IS-25) [PM]
1 33153C 08034A   23133.84565972 -.00000134  00000-0  00000-0 0  1337
2 33153   0.0134 227.2567 0002991 128.2879 148.7330  1.00270440    19
INTELSAT 25 (IS-25)     
1 33153C 08034A   23135.00000000 -.00000134  00000-0  00000-0 0  1355
2 33153   0.0179 352.7061 0002898  57.8921 150.3766  1.00270036    15
GALAXY 19 (G-19)        
1 33376C 08045A   23131.00000000 -.00003588  00000-0  00000-0 0  1312
2 33376   0.0024  27.5694 0003173  31.6441  72.3231  1.00269541    13
GALAXY 19 (G-19)    [PM]
1 33376C 08045A   23133.99429398 -.00000063  00000-0  00000-0 0  1334
2 33376   0.0131 162.4135 0002865 256.6816  73.3177  1.00271684    14
GALAXY 19 (G-19)        
1 33376C 08045A   23135.00000000 -.00000071  00000-0  00000-0 0  1354
2 33376   0.0058 177.7726 0002782 241.4323  76.2550  1.00271866    19
INTELSAT 14 (IS-14)     
1 36097C 09064A   23131.00000000 -.00000183  00000-0  00000-0 0  1315
2 36097   0.0046 292.8204 0002973 130.4482 120.2703  1.00271381    16
INTELSAT 14 (IS-14)     
1 36097C 09064A   23135.00000000 -.00003511  00000-0  00000-0 0  1351
2 36097   0.0001 300.5559 0002663 125.6794 121.2390  1.00270283    18
INTELSAT 14 (IS-14) [PM]
1 36097C 09064A   23137.83336806 -.00000226  00000-0  00000-0 0  1372
2 36097   0.0384  85.5644 0002471 338.3172  66.3822  1.00271930    16
INTELSAT 15 (IS-15)     
1 36106C 09067A   23131.00000000 -.00003442  00000-0  00000-0 0  1310
2 36106   0.0246  42.4421 0002530  12.9248 258.3113  1.00271865    17
INTELSAT 15 (IS-15)     
1 36106C 09067A   23135.00000000 -.00000092  00000-0  00000-0 0  1356
2 36106   0.0383  74.9251 0002149 342.1859 260.5105  1.00271273    11
INTELSAT 15 (IS-15) [PM]
1 36106C 09067A   23135.40090278 -.00003558  00000-0  00000-0 0  1356
2 36106   0.0220 306.7320 0002086 108.8357  46.7741  1.00271242    10
INTELSAT 16 (IS-16)     
1 36397C 10006A   23131.00000000 -.00000157  00000-0  00000-0 0  1317
2 36397   0.0269  59.8091 0002171  15.3179  77.2129  1.00271145    16
INTELSAT 16 (IS-16) [PM]
1 36397C 10006A   23134.85003472 -.00003512  00000-0  00000-0 0  1340
2 36397   0.0194 302.4836 0001826 141.9006  17.7560  1.00269962    10
INTELSAT 16 (IS-16)     
1 36397C 10006A   23135.00000000 -.00000155  00000-0  00000-0 0  1353
2 36397   0.0191 303.7594 0001841 140.1117  72.4036  1.00269907    18
INTELSAT 17 (IS-17)     
1 37238C 10065B   23131.00000000  .00000089  00000-0  00000-0 0  1310
2 37238   0.0188 216.0838 0002747 198.8241 239.6190  1.00270376    10
INTELSAT 17 (IS-17) [PM]
1 37238C 10065B   23134.43531250  .00000088  00000-0  00000-0 0  1348
2 37238   0.0230 239.4717 0002247 176.0652  39.0803  1.00272818    18
INTELSAT 17 (IS-17)     
1 37238C 10065B   23135.00000000  .00000091  00000-0  00000-0 0  1351
2 37238   0.0216 239.6332 0002247 176.5243 242.3063  1.00273208    19
INTELSAT NEW DAWN       
1 37392C 11016A   23131.00000000  .00000249  00000-0  00000-0 0  1316
2 37392   0.0110 242.7267 0001271 198.0458 180.5570  1.00271662    16
INTELSAT NEW DAWN   [PM]
1 37392C 11016A   23134.33523148  .00000246  00000-0  00000-0 0  1348
2 37392   0.0081 227.9317 0001315 218.2686 299.1174  1.00268855    18
INTELSAT NEW DAWN       
1 37392C 11016A   23135.00000000 -.00003301  00000-0  00000-0 0  1357
2 37392   0.0064 229.5703 0001321 215.0266 180.6865  1.00269469    15
INTELSAT NEW DAWN   [PM]
1 37392C 11016A   23135.39011574 -.00004138  00000-0  00000-0 0  1356
2 37392   0.0053 230.6106 0001198 216.2668 319.2308  1.00269739    16
INTELSAT 18 (IS-18)     
1 37834C 11056A   23131.00000000 -.00003828  00000-0  00000-0 0  1318
2 37834   0.0096 355.3428 0002124  58.6851 354.5054  1.00269347    13
INTELSAT 18 (IS-18) [PM]
1 37834C 11056A   23134.12586806 -.00003266  00000-0  00000-0 0  1346
2 37834   0.0102 298.6798 0001690 112.7525  45.4779  1.00272368    14
INTELSAT 18 (IS-18)     
1 37834C 11056A   23135.00000000  .00000145  00000-0  00000-0 0  1354
2 37834   0.0092 303.0445 0001599 107.3511   2.0677  1.00272886    16
INTELSAT 22 (IS-22)     
1 38098C 12011A   23131.00000000  .00000030  00000-0  00000-0 0  1314
2 38098   0.0000  45.0219 0002717  16.3826 239.2316  1.00270415    11
INTELSAT 22 (IS-22) [PM]
1 38098C 12011A   23134.91739583  .00000032  00000-0  00000-0 0  1347
2 38098   0.0123 273.4998 0002155 153.5888 207.6558  1.00269369    19
INTELSAT 22 (IS-22)     
1 38098C 12011A   23135.00000000  .00000032  00000-0  00000-0 0  1354
2 38098   0.0120 273.7213 0002143 153.7925 237.0490  1.00269435    16
INTELSAT 19 (IS-19)     
1 38356C 12030A   23131.00000000  .00000029  00000-0  00000-0 0  1310
2 38356   0.0001 320.2479 0003286  93.1934 341.0984  1.00269801    10
INTELSAT 19 (IS-19) [PM]
1 38356C 12030A   23134.15833333 -.00003492  00000-0  00000-0 0  1343
2 38356   0.0081 283.9303 0002828 130.2380  40.4689  1.00271488    14
INTELSAT 19 (IS-19)     
1 38356C 12030A   23135.00000000  .00000035  00000-0  00000-0 0  1355
2 38356   0.0063 287.4268 0002740 126.3809 344.6599  1.00271803    18
INTELSAT 19 (IS-19) [PM]
1 38356C 12030A   23135.61805556  .00000035  00000-0  00000-0 0  1351
2 38356   0.0059 292.3050 0002775 121.4502 207.8223  1.00272112    19
INTELSAT 20 (IS-20) [PM]
1 38740C 12043A   23130.78346065 -.00002768  00000-0  00000-0 0  1301
2 38740   0.0001 182.4499 0001728 276.2450 120.1622  1.00271891    10
INTELSAT 20 (IS-20)     
1 38740C 12043A   23131.00000000 -.00003663  00000-0  00000-0 0  1319
2 38740   0.0257 147.4945 0001633  25.9489 123.5843  1.00269306    16
INTELSAT 20 (IS-20)     
1 38740C 12043A   23135.00000000 -.00003273  00000-0  00000-0 0  1354
2 38740   0.0145 186.9965 0001531   5.2787 108.6940  1.00270452    17
INTELSAT 21 (IS-21) [PM]
1 38749C 12045A   23130.06234954 -.00000194  00000-0  00000-0 0  1307
2 38749   0.0099 300.8737 0002431 111.1516 140.0249  1.00272689    11
INTELSAT 21 (IS-21)     
1 38749C 12045A   23131.00000000 -.00000198  00000-0  00000-0 0  1310
2 38749   0.0076 298.6980 0002397 114.8363 116.9986  1.00271980    14
INTELSAT 21 (IS-21)     
1 38749C 12045A   23135.00000000 -.00000208  00000-0  00000-0 0  1350
2 38749   0.0033 309.9081 0002050 104.4799 120.0880  1.00270706    13
INTELSAT 23 (IS-23)     
1 38867C 12057A   23131.00000000 -.00000195  00000-0  00000-0 0  1311
2 38867   0.0228 250.5522 0001360 149.9912 135.0176  1.00269516    16
INTELSAT 23 (IS-23)     
1 38867C 12057A   23135.00000000 -.00000195  00000-0  00000-0 0  1359
2 38867   0.0150 240.9958 0001095 149.5063 148.9768  1.00268910    11
INTELSAT 23 (IS-23) [PM]
1 38867C 12057A   23135.78248843 -.00000195  00000-0  00000-0 0  1353
2 38867   0.0178 251.1087 0001426 145.0266  65.7997  1.00263323    15
INTELSAT 30 (IS-30) [PM]
1 40271C 14062A   23130.32895833 -.00000091  00000-0  00000-0 0  1305
2 40271   0.0385  94.0323 0001881 110.2146  46.9917  1.00272110    17
INTELSAT 30 (IS-30)     
1 40271C 14062A   23131.00000000 -.00003772  00000-0  00000-0 0  1315
2 40271   0.0287  99.8232 0001923 352.8937  40.7581  1.00270208    14
INTELSAT 30 (IS-30)     
1 40271C 14062A   23135.00000000 -.00003628  00000-0  00000-0 0  1353
2 40271   0.0003 285.4630 0001389 165.6385  46.3201  1.00270063    18
INTELSAT 34 (IS-34)     
1 40874C 15039A   23131.00000000 -.00000196  00000-0  00000-0 0  1316
2 40874   0.0053 332.4134 0000391 128.2966  72.3317  1.00269572    16
INTELSAT 34 (IS-34) [PM]
1 40874C 15039A   23131.91583333 -.00000202  00000-0  00000-0 0  1319
2 40874   0.0055 245.9883 0000298 177.2638  80.3844  1.00271821    17
INTELSAT 34 (IS-34)     
1 40874C 15039A   23135.00000000 -.00000196  00000-0  00000-0 0  1354
2 40874   0.0075 305.7120 0000291 251.7789 339.4873  1.00270079    10
INTELSAT 31 (IS-31)     
1 41581C 16035A   23131.00000000 -.00000060  00000-0  00000-0 0  1319
2 41581   0.0186 251.8488 0001770 318.0139 283.6244  1.00269127    10
